# From MPC106342
C/1995 O1 (Hale-Bopp),e,89.0458,283.2399,130.7676,182.4445,0.0004000,0.99490872,0.0000,03/29.4551/1997,2000,g -2.0,4.0
# From NK 1615
P/1996 R2 (Lagerkvist),e,2.6009,40.0507,333.2881,3.772870,0.1344919,0.31344657,356.8451,01/19.0/2019,2000,g 11.5,4.0
# From MPC 30063
P/1997 B1 (Kobayashi),e,12.3474,328.9326,183.4165,8.554349,0.0393934,0.76032422,314.1245,01/19.0/2019,2000,g 15.0,2.0
# From MPC 75703
P/1998 VS24 (LINEAR),e,5.0224,159.0406,244.8869,4.533590,0.1021035,0.24160204,37.2920,01/19.0/2019,2000,g 13.0,2.0
# From NK 1780
P/1999 D1 (Hermann),e,21.3194,348.7783,174.1112,5.761691,0.0712655,0.71297486,158.4653,01/19.0/2019,2000,g 15.0,4.0
# From CCO 17
P/1999 R1 (SOHO),e,11.4641,351.9322,56.5282,2.510029,0.2478483,0.97984415,0.0000,08/31.4489/2019,2000,g 27.0,6.0
# From NK 731
P/1999 RO28 (LONEOS),e,7.5645,137.8880,231.2678,3.426938,0.1553620,0.67185559,335.4514,01/19.0/2019,2000,g 20.0,2.0
# From MPC 75704
P/1999 XN120 (Catalina),e,5.0297,285.2962,161.9959,4.179523,0.1153491,0.21103362,67.5695,01/19.0/2019,2000,g 13.5,2.0
# From NK 744
P/2000 R2 (LINEAR),e,11.6829,160.3157,176.4484,3.465102,0.1528024,0.53149477,337.1894,01/19.0/2019,2000,g 18.0,4.0
# From MPC 73461
P/2000 S4 (LINEAR-Spacewatch),e,28.3743,173.8044,173.0630,7.116399,0.0519175,0.68163575,346.9912,01/19.0/2019,2000,g 17.5,2.0
# From MPC 75704
P/2001 BB50 (LINEAR-NEAT),e,10.3568,351.2003,193.6533,5.738360,0.0717005,0.58675994,114.6317,01/19.0/2019,2000,g 13.0,4.0
# From MPC 43019
P/2001 H5 (NEAT),e,8.3747,328.6984,224.8361,6.096636,0.0654740,0.59968285,77.6180,01/19.0/2019,2000,g 12.0,4.0
# From MPC 75704
P/2001 Q6 (NEAT),e,56.8686,22.0332,43.0425,7.939620,0.0440559,0.82259664,277.6886,01/19.0/2019,2000,g 13.5,4.0
# From MPC 47727
P/2002 EJ57 (LINEAR),e,4.9767,330.4303,167.0383,6.461553,0.0600066,0.59338359,12.8652,01/19.0/2019,2000,g 12.5,4.0
# From MPC109588
P/2002 T5 (LINEAR),e,30.8584,123.1016,326.9003,6.992036,0.0533088,0.43718938,303.3465,01/19.0/2019,2000,g  8.0,4.0
# From MPC109588
P/2002 T6 (NEAT-LINEAR),e,10.8611,207.3113,218.9558,7.649999,0.0465813,0.55926277,266.0983,01/19.0/2019,2000,g 10.5,4.0
# From MPC 75007
C/2002 VQ94 (LINEAR),e,70.4565,34.9094,100.2103,189.6753,0.0003773,0.96400047,1.7867,01/19.0/2019,2000,g  9.5,2.0
# From MPC 50354
P/2003 F2 (NEAT),e,11.6045,359.0949,191.7934,6.488832,0.0596286,0.54225587,342.2993,01/19.0/2019,2000,g 16.5,2.0
# From MPC 75704
P/2003 L1 (Scotti),e,9.0206,226.0645,354.8196,6.718619,0.0565958,0.25313600,329.5625,01/19.0/2019,2000,g  8.5,4.0
# From MPC 50139
P/2003 QX29 (NEAT),e,11.3899,264.6047,37.1799,8.046629,0.0431800,0.47208212,256.7865,01/19.0/2019,2000,g  8.5,4.0
# From MPC 99268
P/2003 T12 (SOHO),e,11.0410,174.8549,219.5502,2.586037,0.2370019,0.77058743,247.7793,01/19.0/2019,2000,g 17.0,4.0
# From MPC 75705
P/2003 U3 (NEAT),e,7.0100,347.9867,356.8348,5.054506,0.0867333,0.50923802,135.0164,01/19.0/2019,2000,g 13.5,4.0
# From MPC 82312
P/2004 A1 (LONEOS),e,10.5551,124.8776,21.6917,7.941581,0.0440396,0.31052254,231.1249,01/19.0/2019,2000,g  6.5,4.0
# From MPC 54558
P/2004 DO29 (Spacewatch-LINEAR),e,14.5318,147.4382,40.7564,7.278713,0.0501906,0.44228913,261.5145,01/19.0/2019,2000,g 13.5,2.0
# From MPC 54823
P/2004 FY140 (LINEAR),e,2.1358,326.7780,242.3747,4.896732,0.0909588,0.16979386,115.6782,01/19.0/2019,2000,g 12.5,2.0
# From MPC 53304
P/2004 R3 (LINEAR-NEAT),e,12.7821,305.7598,40.7055,4.744735,0.0953644,0.26050162,265.1295,01/19.0/2019,2000,g 14.5,4.0
# From MPC 55521
P/2004 V3 (Siding Spring),e,50.3893,356.0977,322.2027,7.149448,0.0515579,0.44570285,268.8211,01/19.0/2019,2000,g 11.5,4.0
# From MPC 75705
P/2004 V5 (LINEAR-Hill),e,19.3528,47.7191,88.0273,7.963830,0.0438552,0.44446606,222.5102,01/19.0/2019,2000,g  8.0,4.0
# From MPC 75705
P/2004 WR9 (LINEAR),e,4.9304,24.8868,72.0359,6.144792,0.0647058,0.68271224,331.6151,01/19.0/2019,2000,g 14.5,4.0
# From MPC 54164
P/2005 E1 (Tubbiolo),e,4.2647,335.6278,194.2211,7.031667,0.0528587,0.37597427,269.3661,01/19.0/2019,2000,g 10.0,4.0
# From MPEC 2018-X49
P/2005 GF8 (LONEOS),e,1.1923,314.9070,285.3846,5.854537,0.0695769,0.51644522,342.3793,01/19.0/2019,2000,g 12.5,4.0
# From MPC 79019
P/2005 J1 (McNaught),e,31.7696,268.7959,338.9161,3.568736,0.1461950,0.57032066,14.3453,01/19.0/2019,2000,g 16.5,4.0
# From MPC 75705
P/2005 JD108 (Catalina-NEAT),e,3.2819,223.8089,90.0114,6.507911,0.0593665,0.37551863,295.8861,01/19.0/2019,2000,g 10.0,4.0
# From MPC 74246
P/2005 L1 (McNaught),e,7.7365,138.2386,149.4933,3.978306,0.1242101,0.20890137,233.5530,01/19.0/2019,2000,g  9.5,4.0
# From MPC 87062
C/2005 L3 (McNaught),e,139.5501,288.7755,47.2015,3554,0.0000047,0.99842005,0.0000,01/10.8377/2008,2000,g  4.0,4.0
# From MPC 75706
P/2005 S2 (Skiff),e,3.1354,161.1728,229.5245,8.019248,0.0434014,0.19573867,200.8846,01/19.0/2019,2000,g  7.5,4.0
# From MPC 75706
P/2005 SB216 (LONEOS),e,24.0545,1.3358,83.4984,7.119216,0.0518867,0.46263820,227.0003,01/19.0/2019,2000,g 12.0,2.0
# From MPC 55717
P/2005 T2 (Christensen),e,8.2934,260.1683,58.9897,3.845697,0.1306897,0.41713936,301.7399,01/19.0/2019,2000,g 14.5,4.0
# From MPC 73461
P/2005 T3 (Read),e,6.2372,27.9025,8.0189,7.560765,0.0474084,0.17229129,227.3174,01/19.0/2019,2000,g  9.0,4.0
# From MPC 73461
P/2005 T4 (SWAN),e,160.0894,25.4314,41.3406,9.357116,0.0344343,0.93073734,167.3420,01/19.0/2019,2000,g 15.0,4.0
# From MPC 75706
P/2005 T5 (Broughton),e,21.3362,57.0263,304.4787,7.294169,0.0500311,0.55073967,242.8260,01/19.0/2019,2000,g 11.0,4.0
# From MPC 56954
P/2005 W3 (Kowalski),e,16.4107,210.2270,200.3026,6.343776,0.0616854,0.54285960,299.8115,01/19.0/2019,2000,g 12.0,4.0
# From MPC 75706
P/2005 XA54 (LONEOS-Hill),e,17.1211,143.7030,15.1660,6.049019,0.0662486,0.71036646,310.8972,01/19.0/2019,2000,g 14.0,4.0
# From MPC 75706
P/2005 Y2 (McNaught),e,19.1096,94.5180,194.3035,6.341399,0.0617201,0.46707845,320.3468,01/19.0/2019,2000,g  9.0,4.0
# From MPC 75707
P/2006 F1 (Kowalski),e,21.2780,124.7430,186.2580,4.671456,0.0976170,0.12051125,30.1872,01/19.0/2019,2000,g  8.0,4.0
# From MPC 56954
P/2006 F4 (Spacewatch),e,12.3884,184.0321,31.1675,3.525737,0.1488775,0.33803066,330.8495,01/19.0/2019,2000,g 15.0,4.0
# From MPC 58118
P/2006 H1 (McNaught),e,12.8101,359.9879,309.2653,5.778817,0.0709489,0.58102205,337.1055,01/19.0/2019,2000,g 12.5,4.0
# From MPC 75707
P/2006 HR30 (Siding Spring),e,31.8582,309.8175,117.4007,7.809982,0.0451574,0.84152445,199.1983,01/19.0/2019,2000,g 11.0,4.0
# From MPC 73914
C/2006 K4 (NEAT),e,111.5142,116.6971,233.6827,1121,0.0000263,0.99714416,0.0000,11/24.9911/2007,2000,g  6.0,4.0
# From MPC 82313
C/2006 OF2 (Broughton),h,09/09.6888/2008,30.1595,318.6281,95.7104,1.001535,2.451180,2000,5.5,4.0
# From MPC112388
C/2006 Q1 (McNaught),e,59.1147,199.3819,344.5483,2773,0.0000067,0.99899775,0.0000,07/03.5245/2008,2000,g  5.0,4.0
# From MPC 73461
P/2006 R1 (Siding Spring),e,160.0706,218.8350,249.2805,5.635731,0.0736680,0.70485348,334.1531,01/19.0/2019,2000,g 16.0,4.0
# From MPC 69905
P/2006 S1 (Christensen),e,12.3286,207.9069,133.6198,3.544020,0.1477270,0.59971348,318.7191,01/19.0/2019,2000,g 17.5,4.0
# From MPC105235
C/2006 S3 (LONEOS),h,04/12.7012/2012,166.0227,38.3509,140.1517,1.000055,5.151891,2000,2.0,4.0
# From MPC 75707
P/2006 S4 (Christensen),e,39.5689,36.1113,305.2893,6.293866,0.0624206,0.50680133,291.7669,01/19.0/2019,2000,g 11.0,4.0
# From MPC 60465
C/2006 S5 (Hill),e,10.0999,281.5503,182.2494,96.34424,0.0010422,0.97242420,0.0000,12/02.9688/2007,2000,g  8.0,4.0
# From MPC 66204
C/2006 U6 (Spacewatch),e,84.7977,180.1198,276.7092,2066,0.0000105,0.99878063,0.0000,05/30.5316/2008,2000,g  8.0,4.0
# From MPC 62580
C/2006 V1 (Catalina),e,31.3446,335.4332,253.1746,159.7385,0.0004882,0.98337805,0.0000,11/28.3348/2007,2000,g  8.0,4.0
# From MPC105235
P/2006 W1 (Gibbs),e,18.5348,152.3425,232.1985,5.820809,0.0701825,0.70771346,329.0730,01/19.0/2019,2000,g 12.0,4.0
# From MPC 82313
C/2006 W3 (Christensen),e,127.0749,113.3597,133.1753,3306,0.0000052,0.99905851,0.0000,07/04.3692/2009,2000,g  5.0,4.0
# From MPC 75707
P/2007 A2 (Christensen),e,26.4950,300.9263,186.8794,6.314318,0.0621176,0.55762991,272.3659,01/19.0/2019,2000,g 13.5,4.0
# From MPC 59319
P/2007 B1 (Christensen),e,12.3778,77.6643,46.8501,5.812115,0.0703401,0.58078760,308.1023,01/19.0/2019,2000,g 13.5,4.0
# From MPC112388
C/2007 B2 (Skiff),e,27.5572,14.7191,206.2185,698.6776,0.0000534,0.99574007,0.0000,08/24.3257/2008,2000,g  6.0,4.0
# From MPC 75707
P/2007 C2 (Catalina),e,8.7174,275.8264,179.4834,7.015078,0.0530463,0.46554326,220.1969,01/19.0/2019,2000,g 10.0,4.0
# From MPC 84315
C/2007 D1 (LINEAR),e,41.4960,171.0448,340.2994,2231,0.0000094,0.99603839,0.0000,06/14.7947/2007,2000,g  3.5,4.0
# From MPC 66464
C/2007 G1 (LINEAR),e,88.6504,79.0305,223.8924,10288,0.0000009,0.99974295,0.0000,11/15.9231/2008,2000,g  5.5,4.0
# From MPC 82314
P/2007 K2 (Gibbs),e,7.6535,188.6496,347.5348,7.254950,0.0504374,0.68471681,213.6874,01/19.0/2019,2000,g 14.0,4.0
# From MPC 82314
C/2007 K3 (Siding Spring),e,16.4181,263.1809,23.3023,1818,0.0000127,0.99888692,0.0000,04/24.5075/2008,2000,g  9.5,4.0
# From MPC 87475
C/2007 M1 (McNaught),e,139.7564,326.8681,52.6780,1145,0.0000254,0.99346379,0.0000,08/05.5056/2008,2000,g  6.0,4.0
# From MPC112388
C/2007 M2 (Catalina),e,80.9796,357.2398,220.7463,1855,0.0000123,0.99808849,0.0000,12/11.5494/2008,2000,g  8.0,4.0
# From MPC 73461
C/2007 N3 (Lulin),e,178.3761,338.2389,136.7235,1825,0.0000126,0.99932627,0.0000,01/09.8845/2009,2000,g  6.5,4.0
# From MPC 60925
P/2007 Q2 (Gilmore),e,10.2068,172.2332,162.8638,5.641073,0.0735633,0.66993533,310.0992,01/19.0/2019,2000,g 16.0,4.0
# From MPC 78183
C/2007 Q3 (Siding Spring),h,10/06.3937/2009,65.5393,149.4336,2.2849,1.000569,2.271284,2000,4.5,4.0
# From MPC 75514
P/2007 R1 (Larson),e,7.7347,180.4224,174.9580,6.075045,0.0658233,0.28879953,279.8755,01/19.0/2019,2000,g  8.0,4.0
# From MPC 75708
P/2007 R2 (Gibbs),e,1.2213,11.6928,352.3357,3.569636,0.1461397,0.54386007,271.4566,01/19.0/2019,2000,g 17.0,4.0
# From MPC 75708
